QIANFAN-73              
1 63159U 25046A   25362.82548448  .00000198  00000+0  28791-3 0  9999
2 63159  88.9776 318.3582 0016996  77.5455 282.7597 13.50981562 49581
QIANFAN-74              
1 63160U 25046B   25362.80888804  .00000221  00000+0  32312-3 0  9993
2 63160  88.9776 318.2488 0001998  72.3791 287.7578 13.50978497 49643
QIANFAN-75              
1 63161U 25046C   25362.79614294  .00000242  00000+0  35572-3 0  9996
2 63161  88.9778 318.4839 0018141  80.1501 280.1697 13.50984117 49513
QIANFAN-76              
1 63162U 25046D   25362.86685498  .00000195  00000+0  28287-3 0  9991
2 63162  88.9776 318.4572 0015689  80.4040 279.8883 13.50983863 49532
QIANFAN-77              
1 63163U 25046E   25362.81211914  .00000567  00000+0  40311-3 0  9990
2 63163  88.9777 316.3381 0016429  36.4215 323.8076 13.96101376 50691
QIANFAN-78              
1 63164U 25046F   25362.83368565  .00000224  00000+0  32763-3 0  9990
2 63164  88.9776 318.3244 0017052  82.5606 277.7481 13.50982117 49606
QIANFAN-79              
1 63165U 25046G   25362.78826204  .00000231  00000+0  33874-3 0  9996
2 63165  88.9780 318.4372 0016757  81.1095 279.1953 13.50983928 49547
QIANFAN-80              
1 63166U 25046H   25362.80480558  .00000243  00000+0  35660-3 0  9996
2 63166  88.9777 318.1420 0015707  84.7329 275.5614 13.50982008 49708
